{
  "norad_id": 57818,
  "name": "STARLINK-30401",
  "history": [
    {
      "epoch": "2026-03-28T13:56:34.777248Z",
      "apogee_km": 484.20831992305193,
      "perigee_km": 482.0113486867076,
      "latitude_deg": -1.7077624063662935e-05,
      "longitude_deg": 92.66962238485135,
      "height_km": 482.8570020566576,
      "semi_major_axis_km": 6861.2468343048795,
      "eccentricity": 0.0001601,
      "inclination_deg": 43.0037,
      "raan_deg": 127.8139,
      "arg_perigee_deg": 271.5711,
      "mean_anomaly_deg": 88.4957,
      "mean_motion_rev_day": 15.27559716
    }
  ]
}